{
    "bodies": [
        {
            "name": "TNO-221",
            "mass": 0,
            "semi_major_axis": 255.95890410958904,
            "eccentricity": 0.8302739726027397,
            "inclination": 0.13209512489409136,
            "longitude_of_ascending_node": 5.260364020225801,
            "argument_of_perihelion": 4.8400409057319,
            "mean_anomaly": 5.049818871433061
        },
        {
            "name": "TNO-222",
            "mass": 0,
            "semi_major_axis": 256.43835616438355,
            "eccentricity": 0.8304109589041097,
            "inclination": 0.1326928403913497,
            "longitude_of_ascending_node": 3.5757916888748045,
            "argument_of_perihelion": 2.012703006687623,
            "mean_anomaly": 3.6284045433400847
        },
        {
            "name": "TNO-223",
            "mass": 0,
            "semi_major_axis": 256.9178082191781,
            "eccentricity": 0.8305479452054795,
            "inclination": 0.13329055588860805,
            "longitude_of_ascending_node": 3.77577024126197,
            "argument_of_perihelion": 0.5119068287792865,
            "mean_anomaly": 1.974645498829017
        },
        {
            "name": "TNO-224",
            "mass": 0,
            "semi_major_axis": 257.3972602739726,
            "eccentricity": 0.8306849315068493,
            "inclination": 0.13388827138586637,
            "longitude_of_ascending_node": 4.203631460045613,
            "argument_of_perihelion": 2.2394032580265564,
            "mean_anomaly": 0.021927435377266203
        },
        {
            "name": "TNO-225",
            "mass": 0,
            "semi_major_axis": 257.8767123287671,
            "eccentricity": 0.8308219178082192,
            "inclination": 0.13448598688312471,
            "longitude_of_ascending_node": 4.017482693021948,
            "argument_of_perihelion": 2.992870506633828,
            "mean_anomaly": 3.514814138495706
        },
        {
            "name": "TNO-226",
            "mass": 0,
            "semi_major_axis": 258.35616438356163,
            "eccentricity": 0.8309589041095891,
            "inclination": 0.13508370238038303,
            "longitude_of_ascending_node": 5.743503867453814,
            "argument_of_perihelion": 2.069219064173228,
            "mean_anomaly": 3.6137398161037972
        },
        {
            "name": "TNO-227",
            "mass": 0,
            "semi_major_axis": 258.83561643835617,
            "eccentricity": 0.831095890410959,
            "inclination": 0.13568141787764137,
            "longitude_of_ascending_node": 5.950504226131319,
            "argument_of_perihelion": 2.898246939296363,
            "mean_anomaly": 1.0013947165890336
        },
        {
            "name": "TNO-228",
            "mass": 0,
            "semi_major_axis": 259.31506849315065,
            "eccentricity": 0.8312328767123288,
            "inclination": 0.1362791333748997,
            "longitude_of_ascending_node": 2.2824211127040415,
            "argument_of_perihelion": 4.741651487686646,
            "mean_anomaly": 5.845456383885361
        },
        {
            "name": "TNO-229",
            "mass": 0,
            "semi_major_axis": 259.7945205479452,
            "eccentricity": 0.8313698630136986,
            "inclination": 0.13687684887215804,
            "longitude_of_ascending_node": 4.749205497874508,
            "argument_of_perihelion": 2.330212927747014,
            "mean_anomaly": 1.894783353589402
        },
        {
            "name": "TNO-230",
            "mass": 0,
            "semi_major_axis": 260.2739726027397,
            "eccentricity": 0.8315068493150686,
            "inclination": 0.13747456436941635,
            "longitude_of_ascending_node": 0.07511779402768652,
            "argument_of_perihelion": 1.1593123160953858,
            "mean_anomaly": 1.7520580883780317
        },
        {
            "name": "TNO-231",
            "mass": 0,
            "semi_major_axis": 260.75342465753425,
            "eccentricity": 0.8316438356164384,
            "inclination": 0.1380722798666747,
            "longitude_of_ascending_node": 4.200572760526912,
            "argument_of_perihelion": 2.1684421645534293,
            "mean_anomaly": 5.335514553225057
        },
        {
            "name": "TNO-232",
            "mass": 0,
            "semi_major_axis": 261.2328767123288,
            "eccentricity": 0.8317808219178082,
            "inclination": 0.13866999536393304,
            "longitude_of_ascending_node": 3.953869569949776,
            "argument_of_perihelion": 1.1517065721451674,
            "mean_anomaly": 5.917192910417388
        },
        {
            "name": "TNO-233",
            "mass": 0,
            "semi_major_axis": 261.71232876712327,
            "eccentricity": 0.8319178082191782,
            "inclination": 0.13926771086119136,
            "longitude_of_ascending_node": 0.20584072953249452,
            "argument_of_perihelion": 3.3363764999175314,
            "mean_anomaly": 2.9869121827698852
        },
        {
            "name": "TNO-234",
            "mass": 0,
            "semi_major_axis": 262.1917808219178,
            "eccentricity": 0.832054794520548,
            "inclination": 0.1398654263584497,
            "longitude_of_ascending_node": 0.5807963075672506,
            "argument_of_perihelion": 5.088916030562882,
            "mean_anomaly": 4.387788840580784
        },
        {
            "name": "TNO-235",
            "mass": 0,
            "semi_major_axis": 262.67123287671234,
            "eccentricity": 0.8321917808219178,
            "inclination": 0.14046314185570802,
            "longitude_of_ascending_node": 0.8096874473794908,
            "argument_of_perihelion": 0.40427156532646463,
            "mean_anomaly": 5.281313167494557
        },
        {
            "name": "TNO-236",
            "mass": 0,
            "semi_major_axis": 263.1506849315068,
            "eccentricity": 0.8323287671232877,
            "inclination": 0.14106085735296636,
            "longitude_of_ascending_node": 3.523662282837978,
            "argument_of_perihelion": 1.6313279684203736,
            "mean_anomaly": 3.399007247422736
        },
        {
            "name": "TNO-237",
            "mass": 0,
            "semi_major_axis": 263.63013698630135,
            "eccentricity": 0.8324657534246576,
            "inclination": 0.14165857285022468,
            "longitude_of_ascending_node": 1.6329375712477494,
            "argument_of_perihelion": 0.3253140460152161,
            "mean_anomaly": 3.620361215464689
        },
        {
            "name": "TNO-238",
            "mass": 0,
            "semi_major_axis": 264.1095890410959,
            "eccentricity": 0.8326027397260274,
            "inclination": 0.14225628834748302,
            "longitude_of_ascending_node": 5.179217912230619,
            "argument_of_perihelion": 0.12197072177459542,
            "mean_anomaly": 5.016358461328046
        },
        {
            "name": "TNO-239",
            "mass": 0,
            "semi_major_axis": 264.5890410958904,
            "eccentricity": 0.8327397260273973,
            "inclination": 0.14285400384474137,
            "longitude_of_ascending_node": 2.459476960603938,
            "argument_of_perihelion": 1.7383002757801662,
            "mean_anomaly": 5.939407982665556
        },
        {
            "name": "TNO-240",
            "mass": 0,
            "semi_major_axis": 265.06849315068496,
            "eccentricity": 0.8328767123287671,
            "inclination": 0.14345171934199968,
            "longitude_of_ascending_node": 4.054563263507638,
            "argument_of_perihelion": 3.995898228911176,
            "mean_anomaly": 3.1771747335057325
        },
        {
            "name": "TNO-241",
            "mass": 0,
            "semi_major_axis": 265.54794520547944,
            "eccentricity": 0.8330136986301371,
            "inclination": 0.14404943483925803,
            "longitude_of_ascending_node": 3.7184859324363586,
            "argument_of_perihelion": 0.006893649477448539,
            "mean_anomaly": 3.71691567015315
        },
        {
            "name": "TNO-242",
            "mass": 0,
            "semi_major_axis": 266.027397260274,
            "eccentricity": 0.8331506849315069,
            "inclination": 0.14464715033651634,
            "longitude_of_ascending_node": 1.3257659046731143,
            "argument_of_perihelion": 0.6215296152400259,
            "mean_anomaly": 4.080092894260936
        },
        {
            "name": "TNO-243",
            "mass": 0,
            "semi_major_axis": 266.5068493150685,
            "eccentricity": 0.8332876712328767,
            "inclination": 0.1452448658337747,
            "longitude_of_ascending_node": 4.225363264878731,
            "argument_of_perihelion": 2.3828978175229225,
            "mean_anomaly": 3.516566643085795
        },
        {
            "name": "TNO-244",
            "mass": 0,
            "semi_major_axis": 266.986301369863,
            "eccentricity": 0.8334246575342467,
            "inclination": 0.145842581331033,
            "longitude_of_ascending_node": 2.6118821334278413,
            "argument_of_perihelion": 3.338282693735893,
            "mean_anomaly": 4.748994432030442
        },
        {
            "name": "TNO-245",
            "mass": 0,
            "semi_major_axis": 267.4657534246575,
            "eccentricity": 0.8335616438356165,
            "inclination": 0.14644029682829135,
            "longitude_of_ascending_node": 3.785486887932951,
            "argument_of_perihelion": 3.5210158565388365,
            "mean_anomaly": 1.2627148699781898
        }

    ]
}